CCSDS_OMM_VERS = 2.0
CREATION_DATE  = 
ORIGINATOR     = 

OBJECT_NAME    = STARLINK-35355
OBJECT_ID      = 2025-259AC
CENTER_NAME    = EARTH
REF_FRAME      = TEME
TIME_SYSTEM    = UTC
MEAN_ELEMENT_THEORY = SGP/SGP4

EPOCH          = 2025-12-07T15:50:56.429376
MEAN_MOTION    = 15.50580103
ECCENTRICITY   = .00010297
INCLINATION    = 43.0006
RA_OF_ASC_NODE = 76.9291
ARG_OF_PERICENTER = 260.1542
MEAN_ANOMALY   = 99.9202

EPHEMERIS_TYPE = 0
CLASSIFICATION_TYPE = U
NORAD_CAT_ID   = 66448
ELEMENT_SET_NO = 999
REV_AT_EPOCH   = 538
BSTAR          = .18133801E-2
MEAN_MOTION_DOT = .107517E-2
MEAN_MOTION_DDOT = 0

CCSDS_OMM_VERS = 2.0
CREATION_DATE  = 
ORIGINATOR     = 

OBJECT_NAME    = STARLINK-34720
OBJECT_ID      = 2025-259AD
CENTER_NAME    = EARTH
REF_FRAME      = TEME
TIME_SYSTEM    = UTC
MEAN_ELEMENT_THEORY = SGP/SGP4

EPOCH          = 2025-12-06T16:39:04.732992
MEAN_MOTION    = 15.50613009
ECCENTRICITY   = .00015775
INCLINATION    = 43.0002
RA_OF_ASC_NODE = 82.5763
ARG_OF_PERICENTER = 274.1067
MEAN_ANOMALY   = 85.9613

EPHEMERIS_TYPE = 0
CLASSIFICATION_TYPE = U
NORAD_CAT_ID   = 66449
ELEMENT_SET_NO = 999
REV_AT_EPOCH   = 512
BSTAR          = .24109474E-2
MEAN_MOTION_DOT = .143901E-2
MEAN_MOTION_DDOT = 0

CCSDS_OMM_VERS = 2.0
CREATION_DATE  = 
ORIGINATOR     = 

OBJECT_NAME    = STARLINK-35334
OBJECT_ID      = 2025-259AE
CENTER_NAME    = EARTH
REF_FRAME      = TEME
TIME_SYSTEM    = UTC
MEAN_ELEMENT_THEORY = SGP/SGP4

EPOCH          = 2025-12-06T15:05:49.303968
MEAN_MOTION    = 15.50640512
ECCENTRICITY   = .00016631
INCLINATION    = 43.0010
RA_OF_ASC_NODE = 82.9491
ARG_OF_PERICENTER = 265.9718
MEAN_ANOMALY   = 94.0952

EPHEMERIS_TYPE = 0
CLASSIFICATION_TYPE = U
NORAD_CAT_ID   = 66450
ELEMENT_SET_NO = 999
REV_AT_EPOCH   = 522
BSTAR          = .21499199E-2
MEAN_MOTION_DOT = .12815E-2
MEAN_MOTION_DDOT = 0

CCSDS_OMM_VERS = 2.0
CREATION_DATE  = 
ORIGINATOR     = 

OBJECT_NAME    = VIASAT-3 F2
OBJECT_ID      = 2025-261A
CENTER_NAME    = EARTH
REF_FRAME      = TEME
TIME_SYSTEM    = UTC
MEAN_ELEMENT_THEORY = SGP/SGP4

EPOCH          = 2025-12-04T21:51:56.064384
MEAN_MOTION    = 2.28030055
ECCENTRICITY   = .23396731
INCLINATION    = 5.5696
RA_OF_ASC_NODE = 293.0418
ARG_OF_PERICENTER = 184.3884
MEAN_ANOMALY   = 199.1368

EPHEMERIS_TYPE = 0
CLASSIFICATION_TYPE = U
NORAD_CAT_ID   = 66454
ELEMENT_SET_NO = 999
REV_AT_EPOCH   = 47
BSTAR          = 0
MEAN_MOTION_DOT = -.61E-6
MEAN_MOTION_DDOT = 0

CCSDS_OMM_VERS = 2.0
CREATION_DATE  = 
ORIGINATOR     = 

OBJECT_NAME    = ATLAS 5 CENTAUR R/B
OBJECT_ID      = 2025-261B
CENTER_NAME    = EARTH
REF_FRAME      = TEME
TIME_SYSTEM    = UTC
MEAN_ELEMENT_THEORY = SGP/SGP4

EPOCH          = 2025-12-07T21:33:27.988704
MEAN_MOTION    = 2.28259422
ECCENTRICITY   = .23295294
INCLINATION    = 6.1519
RA_OF_ASC_NODE = 292.1006
ARG_OF_PERICENTER = 185.5108
MEAN_ANOMALY   = 126.3114

EPHEMERIS_TYPE = 0
CLASSIFICATION_TYPE = U
NORAD_CAT_ID   = 66455
ELEMENT_SET_NO = 999
REV_AT_EPOCH   = 53
BSTAR          = 0
MEAN_MOTION_DOT = -.77E-6
MEAN_MOTION_DDOT = 0

CCSDS_OMM_VERS = 2.0
CREATION_DATE  = 
ORIGINATOR     = 

OBJECT_NAME    = STARLINK-35643
OBJECT_ID      = 2025-262A
CENTER_NAME    = EARTH
REF_FRAME      = TEME
TIME_SYSTEM    = UTC
MEAN_ELEMENT_THEORY = SGP/SGP4

EPOCH          = 2025-12-07T22:00:03.000096
MEAN_MOTION    = 15.42501982
ECCENTRICITY   = .00014536
INCLINATION    = 43.0007
RA_OF_ASC_NODE = 99.4035
ARG_OF_PERICENTER = 271.5776
MEAN_ANOMALY   = 95.6136

EPHEMERIS_TYPE = 0
CLASSIFICATION_TYPE = U
NORAD_CAT_ID   = 66456
ELEMENT_SET_NO = 999
REV_AT_EPOCH   = 486
BSTAR          = -.55790864E-1
MEAN_MOTION_DOT = -.2220531E-1
MEAN_MOTION_DDOT = 0

CCSDS_OMM_VERS = 2.0
CREATION_DATE  = 
ORIGINATOR     = 

OBJECT_NAME    = STARLINK-35466
OBJECT_ID      = 2025-262B
CENTER_NAME    = EARTH
REF_FRAME      = TEME
TIME_SYSTEM    = UTC
MEAN_ELEMENT_THEORY = SGP/SGP4

EPOCH          = 2025-12-07T22:00:03.000096
MEAN_MOTION    = 15.45062638
ECCENTRICITY   = .00016881
INCLINATION    = 43.0002
RA_OF_ASC_NODE = 99.3578
ARG_OF_PERICENTER = 287.4192
MEAN_ANOMALY   = 98.2423

EPHEMERIS_TYPE = 0
CLASSIFICATION_TYPE = U
NORAD_CAT_ID   = 66457
ELEMENT_SET_NO = 999
REV_AT_EPOCH   = 486
BSTAR          = -.4801257E-1
MEAN_MOTION_DOT = -.2063978E-1
MEAN_MOTION_DDOT = 0

CCSDS_OMM_VERS = 2.0
CREATION_DATE  = 
ORIGINATOR     = 

OBJECT_NAME    = STARLINK-35684
OBJECT_ID      = 2025-262C
CENTER_NAME    = EARTH
REF_FRAME      = TEME
TIME_SYSTEM    = UTC
MEAN_ELEMENT_THEORY = SGP/SGP4

EPOCH          = 2025-12-07T22:00:03.000096
MEAN_MOTION    = 15.43578298
ECCENTRICITY   = .00011953
INCLINATION    = 43.0006
RA_OF_ASC_NODE = 99.3793
ARG_OF_PERICENTER = 274.8246
MEAN_ANOMALY   = 102.3426

EPHEMERIS_TYPE = 0
CLASSIFICATION_TYPE = U
NORAD_CAT_ID   = 66458
ELEMENT_SET_NO = 999
REV_AT_EPOCH   = 486
BSTAR          = -.38808968E-1
MEAN_MOTION_DOT = -.1602365E-1
MEAN_MOTION_DDOT = 0

CCSDS_OMM_VERS = 2.0
CREATION_DATE  = 
ORIGINATOR     = 

OBJECT_NAME    = STARLINK-35449
OBJECT_ID      = 2025-262D
CENTER_NAME    = EARTH
REF_FRAME      = TEME
TIME_SYSTEM    = UTC
MEAN_ELEMENT_THEORY = SGP/SGP4

EPOCH          = 2025-12-07T22:00:03.000096
MEAN_MOTION    = 15.46393257
ECCENTRICITY   = .00015182
INCLINATION    = 43.0009
RA_OF_ASC_NODE = 99.3406
ARG_OF_PERICENTER = 278.8514
MEAN_ANOMALY   = 113.9100

EPHEMERIS_TYPE = 0
CLASSIFICATION_TYPE = U
NORAD_CAT_ID   = 66459
ELEMENT_SET_NO = 999
REV_AT_EPOCH   = 486
BSTAR          = -.45777379E-1
MEAN_MOTION_DOT = -.2061154E-1
MEAN_MOTION_DDOT = 0

CCSDS_OMM_VERS = 2.0
CREATION_DATE  = 
ORIGINATOR     = 

OBJECT_NAME    = STARLINK-35424
OBJECT_ID      = 2025-262E
CENTER_NAME    = EARTH
REF_FRAME      = TEME
TIME_SYSTEM    = UTC
MEAN_ELEMENT_THEORY = SGP/SGP4

EPOCH          = 2025-12-07T22:00:03.000096
MEAN_MOTION    = 15.47730476
ECCENTRICITY   = .00014718
INCLINATION    = 43.0007
RA_OF_ASC_NODE = 99.3263
ARG_OF_PERICENTER = 280.2926
MEAN_ANOMALY   = 118.1426

EPHEMERIS_TYPE = 0
CLASSIFICATION_TYPE = U
NORAD_CAT_ID   = 66460
ELEMENT_SET_NO = 999
REV_AT_EPOCH   = 486
BSTAR          = -.43872047E-1
MEAN_MOTION_DOT = -.2069108E-1
MEAN_MOTION_DDOT = 0

CCSDS_OMM_VERS = 2.0
CREATION_DATE  = 
ORIGINATOR     = 

OBJECT_NAME    = STARLINK-35132
OBJECT_ID      = 2025-262F
CENTER_NAME    = EARTH
REF_FRAME      = TEME
TIME_SYSTEM    = UTC
MEAN_ELEMENT_THEORY = SGP/SGP4

EPOCH          = 2025-12-07T22:00:03.000096
MEAN_MOTION    = 15.49057845
ECCENTRICITY   = .00017097
INCLINATION    = 43.0007
RA_OF_ASC_NODE = 99.3153
ARG_OF_PERICENTER = 276.3865
MEAN_ANOMALY   = 126.3066

EPHEMERIS_TYPE = 0
CLASSIFICATION_TYPE = U
NORAD_CAT_ID   = 66461
ELEMENT_SET_NO = 999
REV_AT_EPOCH   = 486
BSTAR          = -.41562418E-1
MEAN_MOTION_DOT = -.2056199E-1
MEAN_MOTION_DDOT = 0

CCSDS_OMM_VERS = 2.0
CREATION_DATE  = 
ORIGINATOR     = 

OBJECT_NAME    = STARLINK-35499
OBJECT_ID      = 2025-262G
CENTER_NAME    = EARTH
REF_FRAME      = TEME
TIME_SYSTEM    = UTC
MEAN_ELEMENT_THEORY = SGP/SGP4

EPOCH          = 2025-12-07T22:00:03.000096
MEAN_MOTION    = 15.50395936
ECCENTRICITY   = .00014623
INCLINATION    = 43.0009
RA_OF_ASC_NODE = 99.3074
ARG_OF_PERICENTER = 263.8079
MEAN_ANOMALY   = 141.7154

EPHEMERIS_TYPE = 0
CLASSIFICATION_TYPE = U
NORAD_CAT_ID   = 66462
ELEMENT_SET_NO = 999
REV_AT_EPOCH   = 486
BSTAR          = -.39815919E-1
MEAN_MOTION_DOT = -.2064988E-1
MEAN_MOTION_DDOT = 0

