STARLINK-35355          
1 66448U 25259AC  25341.66037534  .00107517  00000+0  18134-2 0  9999
2 66448  43.0006  76.9291 0001029 260.1542  99.9202 15.50580103  5384
STARLINK-34720          
1 66449U 25259AD  25340.69380478  .00143901  00000+0  24109-2 0  9996
2 66449  43.0002  82.5763 0001577 274.1067  85.9613 15.50613009  5128
STARLINK-35334          
1 66450U 25259AE  25340.62904287  .00128150  00000+0  21499-2 0  9999
2 66450  43.0010  82.9491 0001663 265.9718  94.0952 15.50640512  5225
VIASAT-3 F2             
1 66454U 25261A   25338.91106556 -.00000061  00000+0  00000+0 0  9991
2 66454   5.5696 293.0418 2339673 184.3884 199.1368  2.28030055   477
ATLAS 5 CENTAUR R/B     
1 66455U 25261B   25341.89824061 -.00000077  00000+0  00000+0 0  9998
2 66455   6.1519 292.1006 2329529 185.5108 126.3114  2.28259422   532
STARLINK-35643          
1 66456U 25262A   25341.91670139 -.02220531  00000+0 -55791-1 0  9999
2 66456  43.0007  99.4035 0001453 271.5776  95.6136 15.42501982  4866
STARLINK-35466          
1 66457U 25262B   25341.91670139 -.02063978  00000+0 -48013-1 0  9999
2 66457  43.0002  99.3578 0001688 287.4192  98.2423 15.45062638  4862
STARLINK-35684          
1 66458U 25262C   25341.91670139 -.01602365  00000+0 -38809-1 0  9990
2 66458  43.0006  99.3793 0001195 274.8246 102.3426 15.43578298  4861
STARLINK-35449          
1 66459U 25262D   25341.91670139 -.02061154  00000+0 -45777-1 0  9999
2 66459  43.0009  99.3406 0001518 278.8514 113.9100 15.46393257  4867
STARLINK-35424          
1 66460U 25262E   25341.91670139 -.02069108  00000+0 -43872-1 0  9992
2 66460  43.0007  99.3263 0001471 280.2926 118.1426 15.47730476  4867
STARLINK-35132          
1 66461U 25262F   25341.91670139 -.02056199  00000+0 -41562-1 0  9993
2 66461  43.0007  99.3153 0001709 276.3865 126.3066 15.49057845  4863
STARLINK-35499          
1 66462U 25262G   25341.91670139 -.02064988  00000+0 -39816-1 0  9998
2 66462  43.0009  99.3074 0001462 263.8079 141.7154 15.50395936  4869
